{"type":"FeatureCollection","features":[{"type":"Feature","geometry":{"type":"Polygon","coordinates":[[[146.7,-42.1525],[147.15,-42.5039],[147.15,-43.2127],[146.7,-43.5703],[146.25,-43.2127],[146.25,-42.5039],[146.7,-42.1525]]]},"properties":{"schools":15,"students":2768,"gov_share":80.0,"gov_students":2214,"catholic_students":554,"independent_students":0}},{"type":"Feature","geometry":{"type":"Polygon","coordinates":[[[147.6,-42.1525],[148.05,-42.5039],[148.05,-43.2127],[147.6,-43.5703],[147.15,-43.2127],[147.15,-42.5039],[147.6,-42.1525]]]},"properties":{"schools":105,"students":40492,"gov_share":61.0,"gov_students":24696,"catholic_students":9393,"independent_students":6403}},{"type":"Feature","geometry":{"type":"Polygon","coordinates":[[[145.35,-41.1097],[145.8,-41.4554],[145.8,-42.1525],[145.35,-42.5039],[144.9,-42.1525],[144.9,-41.4554],[145.35,-41.1097]]]},"properties":{"schools":6,"students":458,"gov_share":76.9,"gov_students":352,"catholic_students":106,"independent_students":0}},{"type":"Feature","geometry":{"type":"Polygon","coordinates":[[[146.25,-41.1097],[146.7,-41.4554],[146.7,-42.1525],[146.25,-42.5039],[145.8,-42.1525],[145.8,-41.4554],[146.25,-41.1097]]]},"properties":{"schools":17,"students":4248,"gov_share":73.3,"gov_students":3112,"catholic_students":73,"independent_students":1063}},{"type":"Feature","geometry":{"type":"Polygon","coordinates":[[[147.15,-41.1097],[147.6,-41.4554],[147.6,-42.1525],[147.15,-42.5039],[146.7,-42.1525],[146.7,-41.4554],[147.15,-41.1097]]]},"properties":{"schools":52,"students":19589,"gov_share":69.1,"gov_students":13534,"catholic_students":2887,"independent_students":3168}},{"type":"Feature","geometry":{"type":"Polygon","coordinates":[[[148.05,-41.1097],[148.5,-41.4554],[148.5,-42.1525],[148.05,-42.5039],[147.6,-42.1525],[147.6,-41.4554],[148.05,-41.1097]]]},"properties":{"schools":4,"students":875,"gov_share":100.0,"gov_students":875,"catholic_students":0,"independent_students":0}},{"type":"Feature","geometry":{"type":"Polygon","coordinates":[[[144.9,-40.0832],[145.35,-40.4236],[145.35,-41.1097],[144.9,-41.4554],[144.45,-41.1097],[144.45,-40.4236],[144.9,-40.0832]]]},"properties":{"schools":8,"students":1091,"gov_share":64.3,"gov_students":701,"catholic_students":125,"independent_students":265}},{"type":"Feature","geometry":{"type":"Polygon","coordinates":[[[145.8,-40.0832],[146.25,-40.4236],[146.25,-41.1097],[145.8,-41.4554],[145.35,-41.1097],[145.35,-40.4236],[145.8,-40.0832]]]},"properties":{"schools":27,"students":7851,"gov_share":76.4,"gov_students":5996,"catholic_students":1704,"independent_students":151}},{"type":"Feature","geometry":{"type":"Polygon","coordinates":[[[146.7,-40.0832],[147.15,-40.4236],[147.15,-41.1097],[146.7,-41.4554],[146.25,-41.1097],[146.25,-40.4236],[146.7,-40.0832]]]},"properties":{"schools":18,"students":5542,"gov_share":65.7,"gov_students":3643,"catholic_students":1290,"independent_students":609}},{"type":"Feature","geometry":{"type":"Polygon","coordinates":[[[147.6,-40.0832],[148.05,-40.4236],[148.05,-41.1097],[147.6,-41.4554],[147.15,-41.1097],[147.15,-40.4236],[147.6,-40.0832]]]},"properties":{"schools":5,"students":859,"gov_share":100.0,"gov_students":859,"catholic_students":0,"independent_students":0}},{"type":"Feature","geometry":{"type":"Polygon","coordinates":[[[141.3,-38.075],[141.75,-38.4057],[141.75,-39.0719],[141.3,-39.4074],[140.85,-39.0719],[140.85,-38.4057],[141.3,-38.075]]]},"properties":{"schools":9,"students":1859,"gov_share":64.3,"gov_students":1196,"catholic_students":260,"independent_students":403}},{"type":"Feature","geometry":{"type":"Polygon","coordinates":[[[142.2,-38.075],[142.65,-38.4057],[142.65,-39.0719],[142.2,-39.4074],[141.75,-39.0719],[141.75,-38.4057],[142.2,-38.075]]]},"properties":{"schools":19,"students":7471,"gov_share":52.9,"gov_students":3955,"catholic_students":3240,"independent_students":276}},{"type":"Feature","geometry":{"type":"Polygon","coordinates":[[[143.1,-38.075],[143.55,-38.4057],[143.55,-39.0719],[143.1,-39.4074],[142.65,-39.0719],[142.65,-38.4057],[143.1,-38.075]]]},"properties":{"schools":13,"students":2296,"gov_share":70.6,"gov_students":1620,"catholic_students":676,"independent_students":0}},{"type":"Feature","geometry":{"type":"Polygon","coordinates":[[[144.0,-38.075],[144.45,-38.4057],[144.45,-39.0719],[144.0,-39.4074],[143.55,-39.0719],[143.55,-38.4057],[144.0,-38.075]]]},"properties":{"schools":12,"students":2753,"gov_share":87.9,"gov_students":2421,"catholic_students":332,"independent_students":0}},{"type":"Feature","geometry":{"type":"Polygon","coordinates":[[[144.9,-38.075],[145.35,-38.4057],[145.35,-39.0719],[144.9,-39.4074],[144.45,-39.0719],[144.45,-38.4057],[144.9,-38.075]]]},"properties":{"schools":41,"students":17717,"gov_share":67.2,"gov_students":11903,"catholic_students":3841,"independent_students":1973}},{"type":"Feature","geometry":{"type":"Polygon","coordinates":[[[145.8,-38.075],[146.25,-38.4057],[146.25,-39.0719],[145.8,-39.4074],[145.35,-39.0719],[145.35,-38.4057],[145.8,-38.075]]]},"properties":{"schools":46,"students":15045,"gov_share":61.1,"gov_students":9199,"catholic_students":1933,"independent_students":3913}},{"type":"Feature","geometry":{"type":"Polygon","coordinates":[[[146.7,-38.075],[147.15,-38.4057],[147.15,-39.0719],[146.7,-39.4074],[146.25,-39.0719],[146.25,-38.4057],[146.7,-38.075]]]},"properties":{"schools":17,"students":1954,"gov_share":92.2,"gov_students":1801,"catholic_students":153,"independent_students":0}},{"type":"Feature","geometry":{"type":"Polygon","coordinates":[[[139.95,-37.0914],[140.4,-37.4178],[140.4,-38.075],[139.95,-38.4057],[139.5,-38.075],[139.5,-37.4178],[139.95,-37.0914]]]},"properties":{"schools":7,"students":976,"gov_share":83.0,"gov_students":810,"catholic_students":166,"independent_students":0}},{"type":"Feature","geometry":{"type":"Polygon","coordinates":[[[140.85,-37.0914],[141.3,-37.4178],[141.3,-38.075],[140.85,-38.4057],[140.4,-38.075],[140.4,-37.4178],[140.85,-37.0914]]]},"properties":{"schools":26,"students":6713,"gov_share":64.0,"gov_students":4294,"catholic_students":1609,"independent_students":810}},{"type":"Feature","geometry":{"type":"Polygon","coordinates":[[[141.75,-37.0914],[142.2,-37.4178],[142.2,-38.075],[141.75,-38.4057],[141.3,-38.075],[141.3,-37.4178],[141.75,-37.0914]]]},"properties":{"schools":24,"students":3201,"gov_share":49.3,"gov_students":1578,"catholic_students":915,"independent_students":708}},{"type":"Feature","geometry":{"type":"Polygon","coordinates":[[[142.65,-37.0914],[143.1,-37.4178],[143.1,-38.075],[142.65,-38.4057],[142.2,-38.075],[142.2,-37.4178],[142.65,-37.0914]]]},"properties":{"schools":15,"students":927,"gov_share":94.1,"gov_students":872,"catholic_students":55,"independent_students":0}},{"type":"Feature","geometry":{"type":"Polygon","coordinates":[[[143.55,-37.0914],[144.0,-37.4178],[144.0,-38.075],[143.55,-38.4057],[143.1,-38.075],[143.1,-37.4178],[143.55,-37.0914]]]},"properties":{"schools":83,"students":27310,"gov_share":53.6,"gov_students":14639,"catholic_students":8316,"independent_students":4355}},{"type":"Feature","geometry":{"type":"Polygon","coordinates":[[[144.45,-37.0914],[144.9,-37.4178],[144.9,-38.075],[144.45,-38.4057],[144.0,-38.075],[144.0,-37.4178],[144.45,-37.0914]]]},"properties":{"schools":412,"students":255488,"gov_share":62.6,"gov_students":159849,"catholic_students":57531,"independent_students":38108}},{"type":"Feature","geometry":{"type":"Polygon","coordinates":[[[145.35,-37.0914],[145.8,-37.4178],[145.8,-38.075],[145.35,-38.4057],[144.9,-38.075],[144.9,-37.4178],[145.35,-37.0914]]]},"properties":{"schools":1102,"students":601123,"gov_share":63.1,"gov_students":379267,"catholic_students":104901,"independent_students":116955}},{"type":"Feature","geometry":{"type":"Polygon","coordinates":[[[146.25,-37.0914],[146.7,-37.4178],[146.7,-38.075],[146.25,-38.4057],[145.8,-38.075],[145.8,-37.4178],[146.25,-37.0914]]]},"properties":{"schools":54,"students":15640,"gov_share":70.6,"gov_students":11046,"catholic_students":4594,"independent_students":0}},{"type":"Feature","geometry":{"type":"Polygon","coordinates":[[[147.15,-37.0914],[147.6,-37.4178],[147.6,-38.075],[147.15,-38.4057],[146.7,-38.075],[146.7,-37.4178],[147.15,-37.0914]]]},"properties":{"schools":31,"students":7760,"gov_share":46.7,"gov_students":3621,"catholic_students":3018,"independent_students":1121}},{"type":"Feature","geometry":{"type":"Polygon","coordinates":[[[148.05,-37.0914],[148.5,-37.4178],[148.5,-38.075],[148.05,-38.4057],[147.6,-38.075],[147.6,-37.4178],[148.05,-37.0914]]]},"properties":{"schools":22,"students":4250,"gov_share":92.6,"gov_students":3935,"catholic_students":272,"independent_students":43}},{"type":"Feature","geometry":{"type":"Polygon","coordinates":[[[140.4,-36.1205],[140.85,-36.4428],[140.85,-37.0914],[140.4,-37.4178],[139.95,-37.0914],[139.95,-36.4428],[140.4,-36.1205]]]},"properties":{"schools":7,"students":1441,"gov_share":92.4,"gov_students":1332,"catholic_students":0,"independent_students":109}},{"type":"Feature","geometry":{"type":"Polygon","coordinates":[[[141.3,-36.1205],[141.75,-36.4428],[141.75,-37.0914],[141.3,-37.4178],[140.85,-37.0914],[140.85,-36.4428],[141.3,-36.1205]]]},"properties":{"schools":6,"students":452,"gov_share":85.6,"gov_students":387,"catholic_students":65,"independent_students":0}},{"type":"Feature","geometry":{"type":"Polygon","coordinates":[[[142.2,-36.1205],[142.65,-36.4428],[142.65,-37.0914],[142.2,-37.4178],[141.75,-37.0914],[141.75,-36.4428],[142.2,-36.1205]]]},"properties":{"schools":16,"students":3629,"gov_share":84.9,"gov_students":3082,"catholic_students":547,"independent_students":0}},{"type":"Feature","geometry":{"type":"Polygon","coordinates":[[[143.1,-36.1205],[143.55,-36.4428],[143.55,-37.0914],[143.1,-37.4178],[142.65,-37.0914],[142.65,-36.4428],[143.1,-36.1205]]]},"properties":{"schools":26,"students":3014,"gov_share":74.5,"gov_students":2244,"catholic_students":770,"independent_students":0}},{"type":"Feature","geometry":{"type":"Polygon","coordinates":[[[144.0,-36.1205],[144.45,-36.4428],[144.45,-37.0914],[144.0,-37.4178],[143.55,-37.0914],[143.55,-36.4428],[144.0,-36.1205]]]},"properties":{"schools":73,"students":24703,"gov_share":64.1,"gov_students":15843,"catholic_students":5710,"independent_students":3150}},{"type":"Feature","geometry":{"type":"Polygon","coordinates":[[[144.9,-36.1205],[145.35,-36.4428],[145.35,-37.0914],[144.9,-37.4178],[144.45,-37.0914],[144.45,-36.4428],[144.9,-36.1205]]]},"properties":{"schools":45,"students":10050,"gov_share":58.3,"gov_students":5860,"catholic_students":4165,"independent_students":25}},{"type":"Feature","geometry":{"type":"Polygon","coordinates":[[[145.8,-36.1205],[146.25,-36.4428],[146.25,-37.0914],[145.8,-37.4178],[145.35,-37.0914],[145.35,-36.4428],[145.8,-36.1205]]]},"properties":{"schools":30,"students":6256,"gov_share":59.4,"gov_students":3715,"catholic_students":1808,"independent_students":733}},{"type":"Feature","geometry":{"type":"Polygon","coordinates":[[[146.7,-36.1205],[147.15,-36.4428],[147.15,-37.0914],[146.7,-37.4178],[146.25,-37.0914],[146.25,-36.4428],[146.7,-36.1205]]]},"properties":{"schools":25,"students":2685,"gov_share":83.5,"gov_students":2241,"catholic_students":357,"independent_students":87}},{"type":"Feature","geometry":{"type":"Polygon","coordinates":[[[147.6,-36.1205],[148.05,-36.4428],[148.05,-37.0914],[147.6,-37.4178],[147.15,-37.0914],[147.15,-36.4428],[147.6,-36.1205]]]},"properties":{"schools":9,"students":446,"gov_share":100.0,"gov_students":446,"catholic_students":0,"independent_students":0}},{"type":"Feature","geometry":{"type":"Polygon","coordinates":[[[148.5,-36.1205],[148.95,-36.4428],[148.95,-37.0914],[148.5,-37.4178],[148.05,-37.0914],[148.05,-36.4428],[148.5,-36.1205]]]},"properties":{"schools":5,"students":1120,"gov_share":58.1,"gov_students":651,"catholic_students":0,"independent_students":469}},{"type":"Feature","geometry":{"type":"Polygon","coordinates":[[[149.4,-36.1205],[149.85,-36.4428],[149.85,-37.0914],[149.4,-37.4178],[148.95,-37.0914],[148.95,-36.4428],[149.4,-36.1205]]]},"properties":{"schools":15,"students":2434,"gov_share":62.9,"gov_students":1532,"catholic_students":246,"independent_students":656}},{"type":"Feature","geometry":{"type":"Polygon","coordinates":[[[150.3,-36.1205],[150.75,-36.4428],[150.75,-37.0914],[150.3,-37.4178],[149.85,-37.0914],[149.85,-36.4428],[150.3,-36.1205]]]},"properties":{"schools":12,"students":2671,"gov_share":72.1,"gov_students":1927,"catholic_students":692,"independent_students":52}},{"type":"Feature","geometry":{"type":"Polygon","coordinates":[[[138.15,-35.1614],[138.6,-35.4798],[138.6,-36.1205],[138.15,-36.4428],[137.7,-36.1205],[137.7,-35.4798],[138.15,-35.1614]]]},"properties":{"schools":4,"students":1173,"gov_share":43.1,"gov_students":505,"catholic_students":0,"independent_students":668}},{"type":"Feature","geometry":{"type":"Polygon","coordinates":[[[139.05,-35.1614],[139.5,-35.4798],[139.5,-36.1205],[139.05,-36.4428],[138.6,-36.1205],[138.6,-35.4798],[139.05,-35.1614]]]},"properties":{"schools":8,"students":2920,"gov_share":74.4,"gov_students":2172,"catholic_students":0,"independent_students":748}},{"type":"Feature","geometry":{"type":"Polygon","coordinates":[[[139.95,-35.1614],[140.4,-35.4798],[140.4,-36.1205],[139.95,-36.4428],[139.5,-36.1205],[139.5,-35.4798],[139.95,-35.1614]]]},"properties":{"schools":3,"students":503,"gov_share":100.0,"gov_students":503,"catholic_students":0,"independent_students":0}},{"type":"Feature","geometry":{"type":"Polygon","coordinates":[[[140.85,-35.1614],[141.3,-35.4798],[141.3,-36.1205],[140.85,-36.4428],[140.4,-36.1205],[140.4,-35.4798],[140.85,-35.1614]]]},"properties":{"schools":3,"students":681,"gov_share":100.0,"gov_students":681,"catholic_students":0,"independent_students":0}},{"type":"Feature","geometry":{"type":"Polygon","coordinates":[[[141.75,-35.1614],[142.2,-35.4798],[142.2,-36.1205],[141.75,-36.4428],[141.3,-36.1205],[141.3,-35.4798],[141.75,-35.1614]]]},"properties":{"schools":5,"students":1065,"gov_share":34.0,"gov_students":362,"catholic_students":56,"independent_students":647}},{"type":"Feature","geometry":{"type":"Polygon","coordinates":[[[142.65,-35.1614],[143.1,-35.4798],[143.1,-36.1205],[142.65,-36.4428],[142.2,-36.1205],[142.2,-35.4798],[142.65,-35.1614]]]},"properties":{"schools":9,"students":583,"gov_share":74.3,"gov_students":433,"catholic_students":150,"independent_students":0}},{"type":"Feature","geometry":{"type":"Polygon","coordinates":[[[143.55,-35.1614],[144.0,-35.4798],[144.0,-36.1205],[143.55,-36.4428],[143.1,-36.1205],[143.1,-35.4798],[143.55,-35.1614]]]},"properties":{"schools":20,"students":4003,"gov_share":63.2,"gov_students":2530,"catholic_students":1323,"independent_students":150}},{"type":"Feature","geometry":{"type":"Polygon","coordinates":[[[144.45,-35.1614],[144.9,-35.4798],[144.9,-36.1205],[144.45,-36.4428],[144.0,-36.1205],[144.0,-35.4798],[144.45,-35.1614]]]},"properties":{"schools":21,"students":5438,"gov_share":53.8,"gov_students":2923,"catholic_students":1794,"independent_students":721}},{"type":"Feature","geometry":{"type":"Polygon","coordinates":[[[145.35,-35.1614],[145.8,-35.4798],[145.8,-36.1205],[145.35,-36.4428],[144.9,-36.1205],[144.9,-35.4798],[145.35,-35.1614]]]},"properties":{"schools":58,"students":14830,"gov_share":58.8,"gov_students":8717,"catholic_students":4216,"independent_students":1897}},{"type":"Feature","geometry":{"type":"Polygon","coordinates":[[[146.25,-35.1614],[146.7,-35.4798],[146.7,-36.1205],[146.25,-36.4428],[145.8,-36.1205],[145.8,-35.4798],[146.25,-35.1614]]]},"properties":{"schools":36,"students":8070,"gov_share":53.7,"gov_students":4337,"catholic_students":2658,"independent_students":1075}},{"type":"Feature","geometry":{"type":"Polygon","coordinates":[[[147.15,-35.1614],[147.6,-35.4798],[147.6,-36.1205],[147.15,-36.4428],[146.7,-36.1205],[146.7,-35.4798],[147.15,-35.1614]]]},"properties":{"schools":66,"students":23623,"gov_share":50.4,"gov_students":11904,"catholic_students":4875,"independent_students":6844}},{"type":"Feature","geometry":{"type":"Polygon","coordinates":[[[148.05,-35.1614],[148.5,-35.4798],[148.5,-36.1205],[148.05,-36.4428],[147.6,-36.1205],[147.6,-35.4798],[148.05,-35.1614]]]},"properties":{"schools":19,"students":2400,"gov_share":71.4,"gov_students":1713,"catholic_students":687,"independent_students":0}},{"type":"Feature","geometry":{"type":"Polygon","coordinates":[[[148.95,-35.1614],[149.4,-35.4798],[149.4,-36.1205],[148.95,-36.4428],[148.5,-36.1205],[148.5,-35.4798],[148.95,-35.1614]]]},"properties":{"schools":100,"students":48325,"gov_share":63.4,"gov_students":30661,"catholic_students":8251,"independent_students":9413}},{"type":"Feature","geometry":{"type":"Polygon","coordinates":[[[149.85,-35.1614],[150.3,-35.4798],[150.3,-36.1205],[149.85,-36.4428],[149.4,-36.1205],[149.4,-35.4798],[149.85,-35.1614]]]},"properties":{"schools":18,"students":5624,"gov_share":62.4,"gov_students":3507,"catholic_students":1192,"independent_students":925}},{"type":"Feature","geometry":{"type":"Polygon","coordinates":[[[116.1,-34.2135],[116.55,-34.5282],[116.55,-35.1614],[116.1,-35.4798],[115.65,-35.1614],[115.65,-34.5282],[116.1,-34.2135]]]},"properties":{"schools":3,"students":214,"gov_share":81.8,"gov_students":175,"catholic_students":39,"independent_students":0}},{"type":"Feature","geometry":{"type":"Polygon","coordinates":[[[117.0,-34.2135],[117.45,-34.5282],[117.45,-35.1614],[117.0,-35.4798],[116.55,-35.1614],[116.55,-34.5282],[117.0,-34.2135]]]},"properties":{"schools":7,"students":1341,"gov_share":81.7,"gov_students":1095,"catholic_students":0,"independent_students":246}},{"type":"Feature","geometry":{"type":"Polygon","coordinates":[[[117.9,-34.2135],[118.35,-34.5282],[118.35,-35.1614],[117.9,-35.4798],[117.45,-35.1614],[117.45,-34.5282],[117.9,-34.2135]]]},"properties":{"schools":21,"students":7803,"gov_share":62.3,"gov_students":4859,"catholic_students":675,"independent_students":2269}},{"type":"Feature","geometry":{"type":"Polygon","coordinates":[[[135.9,-34.2135],[136.35,-34.5282],[136.35,-35.1614],[135.9,-35.4798],[135.45,-35.1614],[135.45,-34.5282],[135.9,-34.2135]]]},"properties":{"schools":11,"students":3377,"gov_share":61.7,"gov_students":2082,"catholic_students":829,"independent_students":466}},{"type":"Feature","geometry":{"type":"Polygon","coordinates":[[[137.7,-34.2135],[138.15,-34.5282],[138.15,-35.1614],[137.7,-35.4798],[137.25,-35.1614],[137.25,-34.5282],[137.7,-34.2135]]]},"properties":{"schools":9,"students":1397,"gov_share":60.0,"gov_students":838,"catholic_students":79,"independent_students":480}},{"type":"Feature","geometry":{"type":"Polygon","coordinates":[[[138.6,-34.2135],[139.05,-34.5282],[139.05,-35.1614],[138.6,-35.4798],[138.15,-35.1614],[138.15,-34.5282],[138.6,-34.2135]]]},"properties":{"schools":465,"students":234663,"gov_share":58.6,"gov_students":137421,"catholic_students":47821,"independent_students":49421}},{"type":"Feature","geometry":{"type":"Polygon","coordinates":[[[139.5,-34.2135],[139.95,-34.5282],[139.95,-35.1614],[139.5,-35.4798],[139.05,-35.1614],[139.05,-34.5282],[139.5,-34.2135]]]},"properties":{"schools":20,"students":4636,"gov_share":68.7,"gov_students":3184,"catholic_students":428,"independent_students":1024}},{"type":"Feature","geometry":{"type":"Polygon","coordinates":[[[140.4,-34.2135],[140.85,-34.5282],[140.85,-35.1614],[140.4,-35.4798],[139.95,-35.1614],[139.95,-34.5282],[140.4,-34.2135]]]},"properties":{"schools":7,"students":1474,"gov_share":81.0,"gov_students":1194,"catholic_students":42,"independent_students":238}},{"type":"Feature","geometry":{"type":"Polygon","coordinates":[[[142.2,-34.2135],[142.65,-34.5282],[142.65,-35.1614],[142.2,-35.4798],[141.75,-35.1614],[141.75,-34.5282],[142.2,-34.2135]]]},"properties":{"schools":9,"students":1414,"gov_share":93.8,"gov_students":1327,"catholic_students":87,"independent_students":0}},{"type":"Feature","geometry":{"type":"Polygon","coordinates":[[[143.1,-34.2135],[143.55,-34.5282],[143.55,-35.1614],[143.1,-35.4798],[142.65,-35.1614],[142.65,-34.5282],[143.1,-34.2135]]]},"properties":{"schools":6,"students":870,"gov_share":66.7,"gov_students":580,"catholic_students":290,"independent_students":0}},{"type":"Feature","geometry":{"type":"Polygon","coordinates":[[[144.0,-34.2135],[144.45,-34.5282],[144.45,-35.1614],[144.0,-35.4798],[143.55,-35.1614],[143.55,-34.5282],[144.0,-34.2135]]]},"properties":{"schools":3,"students":283,"gov_share":84.8,"gov_students":240,"catholic_students":43,"independent_students":0}},{"type":"Feature","geometry":{"type":"Polygon","coordinates":[[[144.9,-34.2135],[145.35,-34.5282],[145.35,-35.1614],[144.9,-35.4798],[144.45,-35.1614],[144.45,-34.5282],[144.9,-34.2135]]]},"properties":{"schools":3,"students":404,"gov_share":91.8,"gov_students":371,"catholic_students":33,"independent_students":0}},{"type":"Feature","geometry":{"type":"Polygon","coordinates":[[[145.8,-34.2135],[146.25,-34.5282],[146.25,-35.1614],[145.8,-35.4798],[145.35,-35.1614],[145.35,-34.5282],[145.8,-34.2135]]]},"properties":{"schools":6,"students":367,"gov_share":75.7,"gov_students":278,"catholic_students":89,"independent_students":0}},{"type":"Feature","geometry":{"type":"Polygon","coordinates":[[[146.7,-34.2135],[147.15,-34.5282],[147.15,-35.1614],[146.7,-35.4798],[146.25,-35.1614],[146.25,-34.5282],[146.7,-34.2135]]]},"properties":{"schools":21,"students":3650,"gov_share":64.2,"gov_students":2343,"catholic_students":1281,"independent_students":26}},{"type":"Feature","geometry":{"type":"Polygon","coordinates":[[[147.6,-34.2135],[148.05,-34.5282],[148.05,-35.1614],[147.6,-35.4798],[147.15,-35.1614],[147.15,-34.5282],[147.6,-34.2135]]]},"properties":{"schools":55,"students":14627,"gov_share":56.0,"gov_students":8191,"catholic_students":4279,"independent_students":2157}},{"type":"Feature","geometry":{"type":"Polygon","coordinates":[[[148.5,-34.2135],[148.95,-34.5282],[148.95,-35.1614],[148.5,-35.4798],[148.05,-35.1614],[148.05,-34.5282],[148.5,-34.2135]]]},"properties":{"schools":21,"students":2703,"gov_share":82.4,"gov_students":2228,"catholic_students":475,"independent_students":0}},{"type":"Feature","geometry":{"type":"Polygon","coordinates":[[[149.4,-34.2135],[149.85,-34.5282],[149.85,-35.1614],[149.4,-35.4798],[148.95,-35.1614],[148.95,-34.5282],[149.4,-34.2135]]]},"properties":{"schools":91,"students":43616,"gov_share":60.1,"gov_students":26208,"catholic_students":9875,"independent_students":7533}},{"type":"Feature","geometry":{"type":"Polygon","coordinates":[[[150.3,-34.2135],[150.75,-34.5282],[150.75,-35.1614],[150.3,-35.4798],[149.85,-35.1614],[149.85,-34.5282],[150.3,-34.2135]]]},"properties":{"schools":67,"students":21595,"gov_share":68.4,"gov_students":14764,"catholic_students":2184,"independent_students":4647}},{"type":"Feature","geometry":{"type":"Polygon","coordinates":[[[151.2,-34.2135],[151.65,-34.5282],[151.65,-35.1614],[151.2,-35.4798],[150.75,-35.1614],[150.75,-34.5282],[151.2,-34.2135]]]},"properties":{"schools":55,"students":22724,"gov_share":71.9,"gov_students":16343,"catholic_students":3768,"independent_students":2613}},{"type":"Feature","geometry":{"type":"Polygon","coordinates":[[[114.75,-33.2761],[115.2,-33.5874],[115.2,-34.2135],[114.75,-34.5282],[114.3,-34.2135],[114.3,-33.5874],[114.75,-33.2761]]]},"properties":{"schools":12,"students":4360,"gov_share":77.9,"gov_students":3395,"catholic_students":504,"independent_students":461}},{"type":"Feature","geometry":{"type":"Polygon","coordinates":[[[115.65,-33.2761],[116.1,-33.5874],[116.1,-34.2135],[115.65,-34.5282],[115.2,-34.2135],[115.2,-33.5874],[115.65,-33.2761]]]},"properties":{"schools":47,"students":18616,"gov_share":60.2,"gov_students":11203,"catholic_students":3447,"independent_students":3966}},{"type":"Feature","geometry":{"type":"Polygon","coordinates":[[[116.55,-33.2761],[117.0,-33.5874],[117.0,-34.2135],[116.55,-34.5282],[116.1,-34.2135],[116.1,-33.5874],[116.55,-33.2761]]]},"properties":{"schools":10,"students":2197,"gov_share":75.5,"gov_students":1659,"catholic_students":538,"independent_students":0}},{"type":"Feature","geometry":{"type":"Polygon","coordinates":[[[117.45,-33.2761],[117.9,-33.5874],[117.9,-34.2135],[117.45,-34.5282],[117.0,-34.2135],[117.0,-33.5874],[117.45,-33.2761]]]},"properties":{"schools":10,"students":1245,"gov_share":85.5,"gov_students":1065,"catholic_students":180,"independent_students":0}},{"type":"Feature","geometry":{"type":"Polygon","coordinates":[[[118.35,-33.2761],[118.8,-33.5874],[118.8,-34.2135],[118.35,-34.5282],[117.9,-34.2135],[117.9,-33.5874],[118.35,-33.2761]]]},"properties":{"schools":5,"students":248,"gov_share":100.0,"gov_students":248,"catholic_students":0,"independent_students":0}},{"type":"Feature","geometry":{"type":"Polygon","coordinates":[[[121.95,-33.2761],[122.4,-33.5874],[122.4,-34.2135],[121.95,-34.5282],[121.5,-34.2135],[121.5,-33.5874],[121.95,-33.2761]]]},"properties":{"schools":10,"students":2462,"gov_share":79.3,"gov_students":1952,"catholic_students":99,"independent_students":411}},{"type":"Feature","geometry":{"type":"Polygon","coordinates":[[[136.35,-33.2761],[136.8,-33.5874],[136.8,-34.2135],[136.35,-34.5282],[135.9,-34.2135],[135.9,-33.5874],[136.35,-33.2761]]]},"properties":{"schools":3,"students":383,"gov_share":100.0,"gov_students":383,"catholic_students":0,"independent_students":0}},{"type":"Feature","geometry":{"type":"Polygon","coordinates":[[[137.25,-33.2761],[137.7,-33.5874],[137.7,-34.2135],[137.25,-34.5282],[136.8,-34.2135],[136.8,-33.5874],[137.25,-33.2761]]]},"properties":{"schools":5,"students":718,"gov_share":80.6,"gov_students":579,"catholic_students":139,"independent_students":0}},{"type":"Feature","geometry":{"type":"Polygon","coordinates":[[[138.15,-33.2761],[138.6,-33.5874],[138.6,-34.2135],[138.15,-34.5282],[137.7,-34.2135],[137.7,-33.5874],[138.15,-33.2761]]]},"properties":{"schools":14,"students":3523,"gov_share":76.8,"gov_students":2706,"catholic_students":0,"independent_students":817}},{"type":"Feature","geometry":{"type":"Polygon","coordinates":[[[139.05,-33.2761],[139.5,-33.5874],[139.5,-34.2135],[139.05,-34.5282],[138.6,-34.2135],[138.6,-33.5874],[139.05,-33.2761]]]},"properties":{"schools":23,"students":4461,"gov_share":81.2,"gov_students":3621,"catholic_students":314,"independent_students":526}},{"type":"Feature","geometry":{"type":"Polygon","coordinates":[[[139.95,-33.2761],[140.4,-33.5874],[140.4,-34.2135],[139.95,-34.5282],[139.5,-34.2135],[139.5,-33.5874],[139.95,-33.2761]]]},"properties":{"schools":6,"students":707,"gov_share":89.3,"gov_students":631,"catholic_students":0,"independent_students":76}},{"type":"Feature","geometry":{"type":"Polygon","coordinates":[[[140.85,-33.2761],[141.3,-33.5874],[141.3,-34.2135],[140.85,-34.5282],[140.4,-34.2135],[140.4,-33.5874],[140.85,-33.2761]]]},"properties":{"schools":15,"students":2933,"gov_share":73.0,"gov_students":2140,"catholic_students":652,"independent_students":141}},{"type":"Feature","geometry":{"type":"Polygon","coordinates":[[[141.75,-33.2761],[142.2,-33.5874],[142.2,-34.2135],[141.75,-34.5282],[141.3,-34.2135],[141.3,-33.5874],[141.75,-33.2761]]]},"properties":{"schools":26,"students":8519,"gov_share":70.7,"gov_students":6022,"catholic_students":1650,"independent_students":847}},{"type":"Feature","geometry":{"type":"Polygon","coordinates":[[[142.65,-33.2761],[143.1,-33.5874],[143.1,-34.2135],[142.65,-34.5282],[142.2,-34.2135],[142.2,-33.5874],[142.65,-33.2761]]]},"properties":{"schools":3,"students":591,"gov_share":100.0,"gov_students":591,"catholic_students":0,"independent_students":0}},{"type":"Feature","geometry":{"type":"Polygon","coordinates":[[[145.35,-33.2761],[145.8,-33.5874],[145.8,-34.2135],[145.35,-34.5282],[144.9,-34.2135],[144.9,-33.5874],[145.35,-33.2761]]]},"properties":{"schools":3,"students":273,"gov_share":91.6,"gov_students":250,"catholic_students":23,"independent_students":0}},{"type":"Feature","geometry":{"type":"Polygon","coordinates":[[[146.25,-33.2761],[146.7,-33.5874],[146.7,-34.2135],[146.25,-34.5282],[145.8,-34.2135],[145.8,-33.5874],[146.25,-33.2761]]]},"properties":{"schools":22,"students":4623,"gov_share":66.5,"gov_students":3072,"catholic_students":1366,"independent_students":185}},{"type":"Feature","geometry":{"type":"Polygon","coordinates":[[[147.15,-33.2761],[147.6,-33.5874],[147.6,-34.2135],[147.15,-34.5282],[146.7,-34.2135],[146.7,-33.5874],[147.15,-33.2761]]]},"properties":{"schools":8,"students":887,"gov_share":87.3,"gov_students":774,"catholic_students":113,"independent_students":0}},{"type":"Feature","geometry":{"type":"Polygon","coordinates":[[[148.05,-33.2761],[148.5,-33.5874],[148.5,-34.2135],[148.05,-34.5282],[147.6,-34.2135],[147.6,-33.5874],[148.05,-33.2761]]]},"properties":{"schools":21,"students":4588,"gov_share":57.0,"gov_students":2615,"catholic_students":993,"independent_students":980}},{"type":"Feature","geometry":{"type":"Polygon","coordinates":[[[148.95,-33.2761],[149.4,-33.5874],[149.4,-34.2135],[148.95,-34.5282],[148.5,-34.2135],[148.5,-33.5874],[148.95,-33.2761]]]},"properties":{"schools":22,"students":3196,"gov_share":78.7,"gov_students":2516,"catholic_students":662,"independent_students":18}},{"type":"Feature","geometry":{"type":"Polygon","coordinates":[[[149.85,-33.2761],[150.3,-33.5874],[150.3,-34.2135],[149.85,-34.5282],[149.4,-34.2135],[149.4,-33.5874],[149.85,-33.2761]]]},"properties":{"schools":18,"students":2064,"gov_share":70.2,"gov_students":1449,"catholic_students":359,"independent_students":256}},{"type":"Feature","geometry":{"type":"Polygon","coordinates":[[[150.75,-33.2761],[151.2,-33.5874],[151.2,-34.2135],[150.75,-34.5282],[150.3,-34.2135],[150.3,-33.5874],[150.75,-33.2761]]]},"properties":{"schools":1319,"students":693034,"gov_share":61.6,"gov_students":426945,"catholic_students":128031,"independent_students":138058}},{"type":"Feature","geometry":{"type":"Polygon","coordinates":[[[151.65,-33.2761],[152.1,-33.5874],[152.1,-34.2135],[151.65,-34.5282],[151.2,-34.2135],[151.2,-33.5874],[151.65,-33.2761]]]},"properties":{"schools":230,"students":118126,"gov_share":51.2,"gov_students":60519,"catholic_students":17119,"independent_students":40488}},{"type":"Feature","geometry":{"type":"Polygon","coordinates":[[[116.1,-32.3487],[116.55,-32.6568],[116.55,-33.2761],[116.1,-33.5874],[115.65,-33.2761],[115.65,-32.6568],[116.1,-32.3487]]]},"properties":{"schools":36,"students":11928,"gov_share":70.9,"gov_students":8456,"catholic_students":2171,"independent_students":1301}},{"type":"Feature","geometry":{"type":"Polygon","coordinates":[[[117.0,-32.3487],[117.45,-32.6568],[117.45,-33.2761],[117.0,-33.5874],[116.55,-33.2761],[116.55,-32.6568],[117.0,-32.3487]]]},"properties":{"schools":11,"students":1872,"gov_share":91.5,"gov_students":1713,"catholic_students":159,"independent_students":0}},{"type":"Feature","geometry":{"type":"Polygon","coordinates":[[[117.9,-32.3487],[118.35,-32.6568],[118.35,-33.2761],[117.9,-33.5874],[117.45,-33.2761],[117.45,-32.6568],[117.9,-32.3487]]]},"properties":{"schools":5,"students":281,"gov_share":100.0,"gov_students":281,"catholic_students":0,"independent_students":0}},{"type":"Feature","geometry":{"type":"Polygon","coordinates":[[[118.8,-32.3487],[119.25,-32.6568],[119.25,-33.2761],[118.8,-33.5874],[118.35,-33.2761],[118.35,-32.6568],[118.8,-32.3487]]]},"properties":{"schools":3,"students":233,"gov_share":100.0,"gov_students":233,"catholic_students":0,"independent_students":0}},{"type":"Feature","geometry":{"type":"Polygon","coordinates":[[[137.7,-32.3487],[138.15,-32.6568],[138.15,-33.2761],[137.7,-33.5874],[137.25,-33.2761],[137.25,-32.6568],[137.7,-32.3487]]]},"properties":{"schools":31,"students":8603,"gov_share":65.2,"gov_students":5608,"catholic_students":2367,"independent_students":628}},{"type":"Feature","geometry":{"type":"Polygon","coordinates":[[[138.6,-32.3487],[139.05,-32.6568],[139.05,-33.2761],[138.6,-33.5874],[138.15,-33.2761],[138.15,-32.6568],[138.6,-32.3487]]]},"properties":{"schools":13,"students":1201,"gov_share":84.3,"gov_students":1013,"catholic_students":188,"independent_students":0}},{"type":"Feature","geometry":{"type":"Polygon","coordinates":[[[146.7,-32.3487],[147.15,-32.6568],[147.15,-33.2761],[146.7,-33.5874],[146.25,-33.2761],[146.25,-32.6568],[146.7,-32.3487]]]},"properties":{"schools":8,"students":936,"gov_share":78.6,"gov_students":736,"catholic_students":157,"independent_students":43}},{"type":"Feature","geometry":{"type":"Polygon","coordinates":[[[147.6,-32.3487],[148.05,-32.6568],[148.05,-33.2761],[147.6,-33.5874],[147.15,-33.2761],[147.15,-32.6568],[147.6,-32.3487]]]},"properties":{"schools":5,"students":206,"gov_share":94.2,"gov_students":194,"catholic_students":12,"independent_students":0}},{"type":"Feature","geometry":{"type":"Polygon","coordinates":[[[148.5,-32.3487],[148.95,-32.6568],[148.95,-33.2761],[148.5,-33.5874],[148.05,-33.2761],[148.05,-32.6568],[148.5,-32.3487]]]},"properties":{"schools":19,"students":2858,"gov_share":71.6,"gov_students":2045,"catholic_students":411,"independent_students":402}},{"type":"Feature","geometry":{"type":"Polygon","coordinates":[[[149.4,-32.3487],[149.85,-32.6568],[149.85,-33.2761],[149.4,-33.5874],[148.95,-33.2761],[148.95,-32.6568],[149.4,-32.3487]]]},"properties":{"schools":49,"students":19641,"gov_share":53.0,"gov_students":10413,"catholic_students":5209,"independent_students":4019}},{"type":"Feature","geometry":{"type":"Polygon","coordinates":[[[150.3,-32.3487],[150.75,-32.6568],[150.75,-33.2761],[150.3,-33.5874],[149.85,-33.2761],[149.85,-32.6568],[150.3,-32.3487]]]},"properties":{"schools":14,"students":2222,"gov_share":84.8,"gov_students":1885,"catholic_students":337,"independent_students":0}},{"type":"Feature","geometry":{"type":"Polygon","coordinates":[[[151.2,-32.3487],[151.65,-32.6568],[151.65,-33.2761],[151.2,-33.5874],[150.75,-33.2761],[150.75,-32.6568],[151.2,-32.3487]]]},"properties":{"schools":227,"students":93906,"gov_share":62.7,"gov_students":58866,"catholic_students":17921,"independent_students":17119}},{"type":"Feature","geometry":{"type":"Polygon","coordinates":[[[152.1,-32.3487],[152.55,-32.6568],[152.55,-33.2761],[152.1,-33.5874],[151.65,-33.2761],[151.65,-32.6568],[152.1,-32.3487]]]},"properties":{"schools":140,"students":52056,"gov_share":68.1,"gov_students":35435,"catholic_students":9039,"independent_students":7582}},{"type":"Feature","geometry":{"type":"Polygon","coordinates":[[[115.65,-31.4307],[116.1,-31.7357],[116.1,-32.3487],[115.65,-32.6568],[115.2,-32.3487],[115.2,-31.7357],[115.65,-31.4307]]]},"properties":{"schools":704,"students":387087,"gov_share":65.8,"gov_students":254850,"catholic_students":54733,"independent_students":77504}},{"type":"Feature","geometry":{"type":"Polygon","coordinates":[[[116.55,-31.4307],[117.0,-31.7357],[117.0,-32.3487],[116.55,-32.6568],[116.1,-32.3487],[116.1,-31.7357],[116.55,-31.4307]]]},"properties":{"schools":23,"students":6248,"gov_share":70.1,"gov_students":4382,"catholic_students":885,"independent_students":981}},{"type":"Feature","geometry":{"type":"Polygon","coordinates":[[[117.45,-31.4307],[117.9,-31.7357],[117.9,-32.3487],[117.45,-32.6568],[117.0,-32.3487],[117.0,-31.7357],[117.45,-31.4307]]]},"properties":{"schools":6,"students":654,"gov_share":100.0,"gov_students":654,"catholic_students":0,"independent_students":0}},{"type":"Feature","geometry":{"type":"Polygon","coordinates":[[[118.35,-31.4307],[118.8,-31.7357],[118.8,-32.3487],[118.35,-32.6568],[117.9,-32.3487],[117.9,-31.7357],[118.35,-31.4307]]]},"properties":{"schools":6,"students":954,"gov_share":87.6,"gov_students":836,"catholic_students":118,"independent_students":0}},{"type":"Feature","geometry":{"type":"Polygon","coordinates":[[[133.65,-31.4307],[134.1,-31.7357],[134.1,-32.3487],[133.65,-32.6568],[133.2,-32.3487],[133.2,-31.7357],[133.65,-31.4307]]]},"properties":{"schools":3,"students":609,"gov_share":78.0,"gov_students":475,"catholic_students":0,"independent_students":134}},{"type":"Feature","geometry":{"type":"Polygon","coordinates":[[[141.75,-31.4307],[142.2,-31.7357],[142.2,-32.3487],[141.75,-32.6568],[141.3,-32.3487],[141.3,-31.7357],[141.75,-31.4307]]]},"properties":{"schools":10,"students":2528,"gov_share":92.5,"gov_students":2338,"catholic_students":190,"independent_students":0}},{"type":"Feature","geometry":{"type":"Polygon","coordinates":[[[147.15,-31.4307],[147.6,-31.7357],[147.6,-32.3487],[147.15,-32.6568],[146.7,-32.3487],[146.7,-31.7357],[147.15,-31.4307]]]},"properties":{"schools":4,"students":460,"gov_share":75.2,"gov_students":346,"catholic_students":114,"independent_students":0}},{"type":"Feature","geometry":{"type":"Polygon","coordinates":[[[148.05,-31.4307],[148.5,-31.7357],[148.5,-32.3487],[148.05,-32.6568],[147.6,-32.3487],[147.6,-31.7357],[148.05,-31.4307]]]},"properties":{"schools":8,"students":1276,"gov_share":67.0,"gov_students":855,"catholic_students":244,"independent_students":177}},{"type":"Feature","geometry":{"type":"Polygon","coordinates":[[[148.95,-31.4307],[149.4,-31.7357],[149.4,-32.3487],[148.95,-32.6568],[148.5,-32.3487],[148.5,-31.7357],[148.95,-31.4307]]]},"properties":{"schools":37,"students":10553,"gov_share":58.8,"gov_students":6202,"catholic_students":2565,"independent_students":1786}},{"type":"Feature","geometry":{"type":"Polygon","coordinates":[[[149.85,-31.4307],[150.3,-31.7357],[150.3,-32.3487],[149.85,-32.6568],[149.4,-32.3487],[149.4,-31.7357],[149.85,-31.4307]]]},"properties":{"schools":7,"students":818,"gov_share":80.1,"gov_students":655,"catholic_students":163,"independent_students":0}},{"type":"Feature","geometry":{"type":"Polygon","coordinates":[[[150.75,-31.4307],[151.2,-31.7357],[151.2,-32.3487],[150.75,-32.6568],[150.3,-32.3487],[150.3,-31.7357],[150.75,-31.4307]]]},"properties":{"schools":27,"students":5717,"gov_share":62.3,"gov_students":3561,"catholic_students":1333,"independent_students":823}},{"type":"Feature","geometry":{"type":"Polygon","coordinates":[[[151.65,-31.4307],[152.1,-31.7357],[152.1,-32.3487],[151.65,-32.6568],[151.2,-32.3487],[151.2,-31.7357],[151.65,-31.4307]]]},"properties":{"schools":16,"students":1971,"gov_share":91.0,"gov_students":1794,"catholic_students":177,"independent_students":0}},{"type":"Feature","geometry":{"type":"Polygon","coordinates":[[[152.55,-31.4307],[153.0,-31.7357],[153.0,-32.3487],[152.55,-32.6568],[152.1,-32.3487],[152.1,-31.7357],[152.55,-31.4307]]]},"properties":{"schools":49,"students":12334,"gov_share":74.1,"gov_students":9140,"catholic_students":1617,"independent_students":1577}},{"type":"Feature","geometry":{"type":"Polygon","coordinates":[[[116.1,-30.5216],[116.55,-30.8237],[116.55,-31.4307],[116.1,-31.7357],[115.65,-31.4307],[115.65,-30.8237],[116.1,-30.5216]]]},"properties":{"schools":10,"students":2365,"gov_share":78.9,"gov_students":1865,"catholic_students":142,"independent_students":358}},{"type":"Feature","geometry":{"type":"Polygon","coordinates":[[[117.0,-30.5216],[117.45,-30.8237],[117.45,-31.4307],[117.0,-31.7357],[116.55,-31.4307],[116.55,-30.8237],[117.0,-30.5216]]]},"properties":{"schools":7,"students":513,"gov_share":91.8,"gov_students":471,"catholic_students":42,"independent_students":0}},{"type":"Feature","geometry":{"type":"Polygon","coordinates":[[[121.5,-30.5216],[121.95,-30.8237],[121.95,-31.4307],[121.5,-31.7357],[121.05,-31.4307],[121.05,-30.8237],[121.5,-30.5216]]]},"properties":{"schools":21,"students":6479,"gov_share":74.3,"gov_students":4816,"catholic_students":1274,"independent_students":389}},{"type":"Feature","geometry":{"type":"Polygon","coordinates":[[[145.8,-30.5216],[146.25,-30.8237],[146.25,-31.4307],[145.8,-31.7357],[145.35,-31.4307],[145.35,-30.8237],[145.8,-30.5216]]]},"properties":{"schools":3,"students":556,"gov_share":79.5,"gov_students":442,"catholic_students":114,"independent_students":0}},{"type":"Feature","geometry":{"type":"Polygon","coordinates":[[[148.5,-30.5216],[148.95,-30.8237],[148.95,-31.4307],[148.5,-31.7357],[148.05,-31.4307],[148.05,-30.8237],[148.5,-30.5216]]]},"properties":{"schools":5,"students":665,"gov_share":71.3,"gov_students":474,"catholic_students":191,"independent_students":0}},{"type":"Feature","geometry":{"type":"Polygon","coordinates":[[[149.4,-30.5216],[149.85,-30.8237],[149.85,-31.4307],[149.4,-31.7357],[148.95,-31.4307],[148.95,-30.8237],[149.4,-30.5216]]]},"properties":{"schools":7,"students":832,"gov_share":77.3,"gov_students":643,"catholic_students":189,"independent_students":0}},{"type":"Feature","geometry":{"type":"Polygon","coordinates":[[[150.3,-30.5216],[150.75,-30.8237],[150.75,-31.4307],[150.3,-31.7357],[149.85,-31.4307],[149.85,-30.8237],[150.3,-30.5216]]]},"properties":{"schools":19,"students":2622,"gov_share":60.8,"gov_students":1593,"catholic_students":798,"independent_students":231}},{"type":"Feature","geometry":{"type":"Polygon","coordinates":[[[151.2,-30.5216],[151.65,-30.8237],[151.65,-31.4307],[151.2,-31.7357],[150.75,-31.4307],[150.75,-30.8237],[151.2,-30.5216]]]},"properties":{"schools":35,"students":11325,"gov_share":62.2,"gov_students":7047,"catholic_students":2325,"independent_students":1953}},{"type":"Feature","geometry":{"type":"Polygon","coordinates":[[[153.0,-30.5216],[153.45,-30.8237],[153.45,-31.4307],[153.0,-31.7357],[152.55,-31.4307],[152.55,-30.8237],[153.0,-30.5216]]]},"properties":{"schools":59,"students":18324,"gov_share":52.6,"gov_students":9633,"catholic_students":5486,"independent_students":3205}},{"type":"Feature","geometry":{"type":"Polygon","coordinates":[[[114.75,-29.621],[115.2,-29.9203],[115.2,-30.5216],[114.75,-30.8237],[114.3,-30.5216],[114.3,-29.9203],[114.75,-29.621]]]},"properties":{"schools":3,"students":444,"gov_share":100.0,"gov_students":444,"catholic_students":0,"independent_students":0}},{"type":"Feature","geometry":{"type":"Polygon","coordinates":[[[137.25,-29.621],[137.7,-29.9203],[137.7,-30.5216],[137.25,-30.8237],[136.8,-30.5216],[136.8,-29.9203],[137.25,-29.621]]]},"properties":{"schools":3,"students":708,"gov_share":71.6,"gov_students":507,"catholic_students":201,"independent_students":0}},{"type":"Feature","geometry":{"type":"Polygon","coordinates":[[[146.25,-29.621],[146.7,-29.9203],[146.7,-30.5216],[146.25,-30.8237],[145.8,-30.5216],[145.8,-29.9203],[146.25,-29.621]]]},"properties":{"schools":5,"students":419,"gov_share":77.8,"gov_students":326,"catholic_students":90,"independent_students":3}},{"type":"Feature","geometry":{"type":"Polygon","coordinates":[[[148.05,-29.621],[148.5,-29.9203],[148.5,-30.5216],[148.05,-30.8237],[147.6,-30.5216],[147.6,-29.9203],[148.05,-29.621]]]},"properties":{"schools":4,"students":332,"gov_share":59.6,"gov_students":198,"catholic_students":134,"independent_students":0}},{"type":"Feature","geometry":{"type":"Polygon","coordinates":[[[149.85,-29.621],[150.3,-29.9203],[150.3,-30.5216],[149.85,-30.8237],[149.4,-30.5216],[149.4,-29.9203],[149.85,-29.621]]]},"properties":{"schools":10,"students":1745,"gov_share":68.7,"gov_students":1199,"catholic_students":418,"independent_students":128}},{"type":"Feature","geometry":{"type":"Polygon","coordinates":[[[150.75,-29.621],[151.2,-29.9203],[151.2,-30.5216],[150.75,-30.8237],[150.3,-30.5216],[150.3,-29.9203],[150.75,-29.621]]]},"properties":{"schools":8,"students":870,"gov_share":82.5,"gov_students":718,"catholic_students":152,"independent_students":0}},{"type":"Feature","geometry":{"type":"Polygon","coordinates":[[[151.65,-29.621],[152.1,-29.9203],[152.1,-30.5216],[151.65,-30.8237],[151.2,-30.5216],[151.2,-29.9203],[151.65,-29.621]]]},"properties":{"schools":31,"students":6595,"gov_share":62.6,"gov_students":4131,"catholic_students":1121,"independent_students":1343}},{"type":"Feature","geometry":{"type":"Polygon","coordinates":[[[152.55,-29.621],[153.0,-29.9203],[153.0,-30.5216],[152.55,-30.8237],[152.1,-30.5216],[152.1,-29.9203],[152.55,-29.621]]]},"properties":{"schools":17,"students":1618,"gov_share":77.0,"gov_students":1246,"catholic_students":184,"independent_students":188}},{"type":"Feature","geometry":{"type":"Polygon","coordinates":[[[153.45,-29.621],[153.9,-29.9203],[153.9,-30.5216],[153.45,-30.8237],[153.0,-30.5216],[153.0,-29.9203],[153.45,-29.621]]]},"properties":{"schools":37,"students":13533,"gov_share":61.5,"gov_students":8317,"catholic_students":2553,"independent_students":2663}},{"type":"Feature","geometry":{"type":"Polygon","coordinates":[[[115.2,-28.7283],[115.65,-29.025],[115.65,-29.621],[115.2,-29.9203],[114.75,-29.621],[114.75,-29.025],[115.2,-28.7283]]]},"properties":{"schools":3,"students":455,"gov_share":100.0,"gov_students":455,"catholic_students":0,"independent_students":0}},{"type":"Feature","geometry":{"type":"Polygon","coordinates":[[[116.1,-28.7283],[116.55,-29.025],[116.55,-29.621],[116.1,-29.9203],[115.65,-29.621],[115.65,-29.025],[116.1,-28.7283]]]},"properties":{"schools":5,"students":396,"gov_share":100.0,"gov_students":396,"catholic_students":0,"independent_students":0}},{"type":"Feature","geometry":{"type":"Polygon","coordinates":[[[147.6,-28.7283],[148.05,-29.025],[148.05,-29.621],[147.6,-29.9203],[147.15,-29.621],[147.15,-29.025],[147.6,-28.7283]]]},"properties":{"schools":3,"students":353,"gov_share":100.0,"gov_students":353,"catholic_students":0,"independent_students":0}},{"type":"Feature","geometry":{"type":"Polygon","coordinates":[[[149.4,-28.7283],[149.85,-29.025],[149.85,-29.621],[149.4,-29.9203],[148.95,-29.621],[148.95,-29.025],[149.4,-28.7283]]]},"properties":{"schools":9,"students":1549,"gov_share":70.2,"gov_students":1087,"catholic_students":336,"independent_students":126}},{"type":"Feature","geometry":{"type":"Polygon","coordinates":[[[150.3,-28.7283],[150.75,-29.025],[150.75,-29.621],[150.3,-29.9203],[149.85,-29.621],[149.85,-29.025],[150.3,-28.7283]]]},"properties":{"schools":8,"students":495,"gov_share":94.9,"gov_students":470,"catholic_students":25,"independent_students":0}},{"type":"Feature","geometry":{"type":"Polygon","coordinates":[[[151.2,-28.7283],[151.65,-29.025],[151.65,-29.621],[151.2,-29.9203],[150.75,-29.621],[150.75,-29.025],[151.2,-28.7283]]]},"properties":{"schools":11,"students":2943,"gov_share":80.4,"gov_students":2366,"catholic_students":577,"independent_students":0}},{"type":"Feature","geometry":{"type":"Polygon","coordinates":[[[152.1,-28.7283],[152.55,-29.025],[152.55,-29.621],[152.1,-29.9203],[151.65,-29.621],[151.65,-29.025],[152.1,-28.7283]]]},"properties":{"schools":9,"students":708,"gov_share":80.6,"gov_students":571,"catholic_students":137,"independent_students":0}},{"type":"Feature","geometry":{"type":"Polygon","coordinates":[[[153.0,-28.7283],[153.45,-29.025],[153.45,-29.621],[153.0,-29.9203],[152.55,-29.621],[152.55,-29.025],[153.0,-28.7283]]]},"properties":{"schools":44,"students":10686,"gov_share":64.8,"gov_students":6923,"catholic_students":2470,"independent_students":1293}},{"type":"Feature","geometry":{"type":"Polygon","coordinates":[[[114.75,-27.8432],[115.2,-28.1374],[115.2,-28.7283],[114.75,-29.025],[114.3,-28.7283],[114.3,-28.1374],[114.75,-27.8432]]]},"properties":{"schools":26,"students":8409,"gov_share":55.0,"gov_students":4622,"catholic_students":2508,"independent_students":1279}},{"type":"Feature","geometry":{"type":"Polygon","coordinates":[[[145.35,-27.8432],[145.8,-28.1374],[145.8,-28.7283],[145.35,-29.025],[144.9,-28.7283],[144.9,-28.1374],[145.35,-27.8432]]]},"properties":{"schools":3,"students":207,"gov_share":63.8,"gov_students":132,"catholic_students":75,"independent_students":0}},{"type":"Feature","geometry":{"type":"Polygon","coordinates":[[[149.85,-27.8432],[150.3,-28.1374],[150.3,-28.7283],[149.85,-29.025],[149.4,-28.7283],[149.4,-28.1374],[149.85,-27.8432]]]},"properties":{"schools":4,"students":495,"gov_share":100.0,"gov_students":495,"catholic_students":0,"independent_students":0}},{"type":"Feature","geometry":{"type":"Polygon","coordinates":[[[150.75,-27.8432],[151.2,-28.1374],[151.2,-28.7283],[150.75,-29.025],[150.3,-28.7283],[150.3,-28.1374],[150.75,-27.8432]]]},"properties":{"schools":10,"students":1217,"gov_share":57.8,"gov_students":704,"catholic_students":422,"independent_students":91}},{"type":"Feature","geometry":{"type":"Polygon","coordinates":[[[151.65,-27.8432],[152.1,-28.1374],[152.1,-28.7283],[151.65,-29.025],[151.2,-28.7283],[151.2,-28.1374],[151.65,-27.8432]]]},"properties":{"schools":27,"students":5046,"gov_share":59.7,"gov_students":3014,"catholic_students":1257,"independent_students":775}},{"type":"Feature","geometry":{"type":"Polygon","coordinates":[[[152.55,-27.8432],[153.0,-28.1374],[153.0,-28.7283],[152.55,-29.025],[152.1,-28.7283],[152.1,-28.1374],[152.55,-27.8432]]]},"properties":{"schools":24,"students":2495,"gov_share":75.5,"gov_students":1883,"catholic_students":137,"independent_students":475}},{"type":"Feature","geometry":{"type":"Polygon","coordinates":[[[153.45,-27.8432],[153.9,-28.1374],[153.9,-28.7283],[153.45,-29.025],[153.0,-28.7283],[153.0,-28.1374],[153.45,-27.8432]]]},"properties":{"schools":216,"students":106280,"gov_share":56.8,"gov_students":60377,"catholic_students":15347,"independent_students":30556}},{"type":"Feature","geometry":{"type":"Polygon","coordinates":[[[148.5,-26.9652],[148.95,-27.2571],[148.95,-27.8432],[148.5,-28.1374],[148.05,-27.8432],[148.05,-27.2571],[148.5,-26.9652]]]},"properties":{"schools":4,"students":496,"gov_share":70.0,"gov_students":347,"catholic_students":149,"independent_students":0}},{"type":"Feature","geometry":{"type":"Polygon","coordinates":[[[150.3,-26.9652],[150.75,-27.2571],[150.75,-27.8432],[150.3,-28.1374],[149.85,-27.8432],[149.85,-27.2571],[150.3,-26.9652]]]},"properties":{"schools":6,"students":505,"gov_share":89.7,"gov_students":453,"catholic_students":52,"independent_students":0}},{"type":"Feature","geometry":{"type":"Polygon","coordinates":[[[151.2,-26.9652],[151.65,-27.2571],[151.65,-27.8432],[151.2,-28.1374],[150.75,-27.8432],[150.75,-27.2571],[151.2,-26.9652]]]},"properties":{"schools":15,"students":4650,"gov_share":70.4,"gov_students":3273,"catholic_students":958,"independent_students":419}},{"type":"Feature","geometry":{"type":"Polygon","coordinates":[[[152.1,-26.9652],[152.55,-27.2571],[152.55,-27.8432],[152.1,-28.1374],[151.65,-27.8432],[151.65,-27.2571],[152.1,-26.9652]]]},"properties":{"schools":110,"students":37210,"gov_share":57.5,"gov_students":21412,"catholic_students":8448,"independent_students":7350}},{"type":"Feature","geometry":{"type":"Polygon","coordinates":[[[153.0,-26.9652],[153.45,-27.2571],[153.45,-27.8432],[153.0,-28.1374],[152.55,-27.8432],[152.55,-27.2571],[153.0,-26.9652]]]},"properties":{"schools":674,"students":470926,"gov_share":64.3,"gov_students":302956,"catholic_students":83840,"independent_students":84130}},{"type":"Feature","geometry":{"type":"Polygon","coordinates":[[[146.25,-26.0941],[146.7,-26.3837],[146.7,-26.9652],[146.25,-27.2571],[145.8,-26.9652],[145.8,-26.3837],[146.25,-26.0941]]]},"properties":{"schools":4,"students":671,"gov_share":76.6,"gov_students":514,"catholic_students":157,"independent_students":0}},{"type":"Feature","geometry":{"type":"Polygon","coordinates":[[[148.95,-26.0941],[149.4,-26.3837],[149.4,-26.9652],[148.95,-27.2571],[148.5,-26.9652],[148.5,-26.3837],[148.95,-26.0941]]]},"properties":{"schools":5,"students":1877,"gov_share":56.0,"gov_students":1051,"catholic_students":826,"independent_students":0}},{"type":"Feature","geometry":{"type":"Polygon","coordinates":[[[149.85,-26.0941],[150.3,-26.3837],[150.3,-26.9652],[149.85,-27.2571],[149.4,-26.9652],[149.4,-26.3837],[149.85,-26.0941]]]},"properties":{"schools":6,"students":473,"gov_share":100.0,"gov_students":473,"catholic_students":0,"independent_students":0}},{"type":"Feature","geometry":{"type":"Polygon","coordinates":[[[150.75,-26.0941],[151.2,-26.3837],[151.2,-26.9652],[150.75,-27.2571],[150.3,-26.9652],[150.3,-26.3837],[150.75,-26.0941]]]},"properties":{"schools":9,"students":1961,"gov_share":61.8,"gov_students":1211,"catholic_students":288,"independent_students":462}},{"type":"Feature","geometry":{"type":"Polygon","coordinates":[[[151.65,-26.0941],[152.1,-26.3837],[152.1,-26.9652],[151.65,-27.2571],[151.2,-26.9652],[151.2,-26.3837],[151.65,-26.0941]]]},"properties":{"schools":26,"students":4763,"gov_share":77.2,"gov_students":3676,"catholic_students":361,"independent_students":726}},{"type":"Feature","geometry":{"type":"Polygon","coordinates":[[[152.55,-26.0941],[153.0,-26.3837],[153.0,-26.9652],[152.55,-27.2571],[152.1,-26.9652],[152.1,-26.3837],[152.55,-26.0941]]]},"properties":{"schools":72,"students":25476,"gov_share":71.9,"gov_students":18307,"catholic_students":2231,"independent_students":4938}},{"type":"Feature","geometry":{"type":"Polygon","coordinates":[[[153.45,-26.0941],[153.9,-26.3837],[153.9,-26.9652],[153.45,-27.2571],[153.0,-26.9652],[153.0,-26.3837],[153.45,-26.0941]]]},"properties":{"schools":59,"students":48824,"gov_share":64.6,"gov_students":31559,"catholic_students":6956,"independent_students":10309}},{"type":"Feature","geometry":{"type":"Polygon","coordinates":[[[151.2,-25.2294],[151.65,-25.5169],[151.65,-26.0941],[151.2,-26.3837],[150.75,-26.0941],[150.75,-25.5169],[151.2,-25.2294]]]},"properties":{"schools":9,"students":676,"gov_share":89.5,"gov_students":605,"catholic_students":71,"independent_students":0}},{"type":"Feature","geometry":{"type":"Polygon","coordinates":[[[152.1,-25.2294],[152.55,-25.5169],[152.55,-26.0941],[152.1,-26.3837],[151.65,-26.0941],[151.65,-25.5169],[152.1,-25.2294]]]},"properties":{"schools":15,"students":1107,"gov_share":90.5,"gov_students":1002,"catholic_students":105,"independent_students":0}},{"type":"Feature","geometry":{"type":"Polygon","coordinates":[[[153.0,-25.2294],[153.45,-25.5169],[153.45,-26.0941],[153.0,-26.3837],[152.55,-26.0941],[152.55,-25.5169],[153.0,-25.2294]]]},"properties":{"schools":26,"students":7403,"gov_share":61.5,"gov_students":4551,"catholic_students":672,"independent_students":2180}},{"type":"Feature","geometry":{"type":"Polygon","coordinates":[[[113.85,-24.3707],[114.3,-24.6563],[114.3,-25.2294],[113.85,-25.5169],[113.4,-25.2294],[113.4,-24.6563],[113.85,-24.3707]]]},"properties":{"schools":4,"students":881,"gov_share":55.5,"gov_students":489,"catholic_students":321,"independent_students":71}},{"type":"Feature","geometry":{"type":"Polygon","coordinates":[[[149.85,-24.3707],[150.3,-24.6563],[150.3,-25.2294],[149.85,-25.5169],[149.4,-25.2294],[149.4,-24.6563],[149.85,-24.3707]]]},"properties":{"schools":3,"students":565,"gov_share":100.0,"gov_students":565,"catholic_students":0,"independent_students":0}},{"type":"Feature","geometry":{"type":"Polygon","coordinates":[[[150.75,-24.3707],[151.2,-24.6563],[151.2,-25.2294],[150.75,-25.5169],[150.3,-25.2294],[150.3,-24.6563],[150.75,-24.3707]]]},"properties":{"schools":6,"students":499,"gov_share":92.8,"gov_students":463,"catholic_students":36,"independent_students":0}},{"type":"Feature","geometry":{"type":"Polygon","coordinates":[[[151.65,-24.3707],[152.1,-24.6563],[152.1,-25.2294],[151.65,-25.5169],[151.2,-25.2294],[151.2,-24.6563],[151.65,-24.3707]]]},"properties":{"schools":10,"students":1121,"gov_share":100.0,"gov_students":1121,"catholic_students":0,"independent_students":0}},{"type":"Feature","geometry":{"type":"Polygon","coordinates":[[[152.55,-24.3707],[153.0,-24.6563],[153.0,-25.2294],[152.55,-25.5169],[152.1,-25.2294],[152.1,-24.6563],[152.55,-24.3707]]]},"properties":{"schools":59,"students":24574,"gov_share":61.2,"gov_students":15034,"catholic_students":4584,"independent_students":4956}},{"type":"Feature","geometry":{"type":"Polygon","coordinates":[[[134.1,-23.5179],[134.55,-23.8016],[134.55,-24.3707],[134.1,-24.6563],[133.65,-24.3707],[133.65,-23.8016],[134.1,-23.5179]]]},"properties":{"schools":20,"students":4816,"gov_share":52.4,"gov_students":2525,"catholic_students":1016,"independent_students":1275}},{"type":"Feature","geometry":{"type":"Polygon","coordinates":[[[148.5,-23.5179],[148.95,-23.8016],[148.95,-24.3707],[148.5,-24.6563],[148.05,-24.3707],[148.05,-23.8016],[148.5,-23.5179]]]},"properties":{"schools":5,"students":244,"gov_share":90.6,"gov_students":221,"catholic_students":23,"independent_students":0}},{"type":"Feature","geometry":{"type":"Polygon","coordinates":[[[149.4,-23.5179],[149.85,-23.8016],[149.85,-24.3707],[149.4,-24.6563],[148.95,-24.3707],[148.95,-23.8016],[149.4,-23.5179]]]},"properties":{"schools":6,"students":475,"gov_share":88.0,"gov_students":418,"catholic_students":0,"independent_students":57}},{"type":"Feature","geometry":{"type":"Polygon","coordinates":[[[150.3,-23.5179],[150.75,-23.8016],[150.75,-24.3707],[150.3,-24.6563],[149.85,-24.3707],[149.85,-23.8016],[150.3,-23.5179]]]},"properties":{"schools":13,"students":1817,"gov_share":73.4,"gov_students":1334,"catholic_students":166,"independent_students":317}},{"type":"Feature","geometry":{"type":"Polygon","coordinates":[[[151.2,-23.5179],[151.65,-23.8016],[151.65,-24.3707],[151.2,-24.6563],[150.75,-24.3707],[150.75,-23.8016],[151.2,-23.5179]]]},"properties":{"schools":28,"students":11502,"gov_share":74.9,"gov_students":8613,"catholic_students":2060,"independent_students":829}},{"type":"Feature","geometry":{"type":"Polygon","coordinates":[[[152.1,-23.5179],[152.55,-23.8016],[152.55,-24.3707],[152.1,-24.6563],[151.65,-24.3707],[151.65,-23.8016],[152.1,-23.5179]]]},"properties":{"schools":4,"students":649,"gov_share":36.2,"gov_students":235,"catholic_students":0,"independent_students":414}},{"type":"Feature","geometry":{"type":"Polygon","coordinates":[[[120.15,-22.6706],[120.6,-22.9524],[120.6,-23.5179],[120.15,-23.8016],[119.7,-23.5179],[119.7,-22.9524],[120.15,-22.6706]]]},"properties":{"schools":3,"students":1048,"gov_share":100.0,"gov_students":1048,"catholic_students":0,"independent_students":0}},{"type":"Feature","geometry":{"type":"Polygon","coordinates":[[[144.45,-22.6706],[144.9,-22.9524],[144.9,-23.5179],[144.45,-23.8016],[144.0,-23.5179],[144.0,-22.9524],[144.45,-22.6706]]]},"properties":{"schools":5,"students":655,"gov_share":82.1,"gov_students":538,"catholic_students":117,"independent_students":0}},{"type":"Feature","geometry":{"type":"Polygon","coordinates":[[[145.35,-22.6706],[145.8,-22.9524],[145.8,-23.5179],[145.35,-23.8016],[144.9,-23.5179],[144.9,-22.9524],[145.35,-22.6706]]]},"properties":{"schools":3,"students":277,"gov_share":94.2,"gov_students":261,"catholic_students":16,"independent_students":0}},{"type":"Feature","geometry":{"type":"Polygon","coordinates":[[[148.05,-22.6706],[148.5,-22.9524],[148.5,-23.5179],[148.05,-23.8016],[147.6,-23.5179],[147.6,-22.9524],[148.05,-22.6706]]]},"properties":{"schools":15,"students":9427,"gov_share":82.7,"gov_students":7795,"catholic_students":1502,"independent_students":130}},{"type":"Feature","geometry":{"type":"Polygon","coordinates":[[[148.95,-22.6706],[149.4,-22.9524],[149.4,-23.5179],[148.95,-23.8016],[148.5,-23.5179],[148.5,-22.9524],[148.95,-22.6706]]]},"properties":{"schools":4,"students":903,"gov_share":100.0,"gov_students":903,"catholic_students":0,"independent_students":0}},{"type":"Feature","geometry":{"type":"Polygon","coordinates":[[[150.75,-22.6706],[151.2,-22.9524],[151.2,-23.5179],[150.75,-23.8016],[150.3,-23.5179],[150.3,-22.9524],[150.75,-22.6706]]]},"properties":{"schools":53,"students":22495,"gov_share":47.8,"gov_students":10754,"catholic_students":7688,"independent_students":4053}},{"type":"Feature","geometry":{"type":"Polygon","coordinates":[[[117.9,-21.8285],[118.35,-22.1086],[118.35,-22.6706],[117.9,-22.9524],[117.45,-22.6706],[117.45,-22.1086],[117.9,-21.8285]]]},"properties":{"schools":3,"students":858,"gov_share":100.0,"gov_students":858,"catholic_students":0,"independent_students":0}},{"type":"Feature","geometry":{"type":"Polygon","coordinates":[[[147.6,-21.8285],[148.05,-22.1086],[148.05,-22.6706],[147.6,-22.9524],[147.15,-22.6706],[147.15,-22.1086],[147.6,-21.8285]]]},"properties":{"schools":4,"students":531,"gov_share":68.9,"gov_students":366,"catholic_students":165,"independent_students":0}},{"type":"Feature","geometry":{"type":"Polygon","coordinates":[[[148.5,-21.8285],[148.95,-22.1086],[148.95,-22.6706],[148.5,-22.9524],[148.05,-22.6706],[148.05,-22.1086],[148.5,-21.8285]]]},"properties":{"schools":4,"students":717,"gov_share":100.0,"gov_students":717,"catholic_students":0,"independent_students":0}},{"type":"Feature","geometry":{"type":"Polygon","coordinates":[[[148.05,-20.9913],[148.5,-21.2698],[148.5,-21.8285],[148.05,-22.1086],[147.6,-21.8285],[147.6,-21.2698],[148.05,-20.9913]]]},"properties":{"schools":5,"students":1955,"gov_share":100.0,"gov_students":1955,"catholic_students":0,"independent_students":0}},{"type":"Feature","geometry":{"type":"Polygon","coordinates":[[[148.95,-20.9913],[149.4,-21.2698],[149.4,-21.8285],[148.95,-22.1086],[148.5,-21.8285],[148.5,-21.2698],[148.95,-20.9913]]]},"properties":{"schools":33,"students":10727,"gov_share":67.0,"gov_students":7188,"catholic_students":3464,"independent_students":75}},{"type":"Feature","geometry":{"type":"Polygon","coordinates":[[[117.0,-20.1587],[117.45,-20.4357],[117.45,-20.9913],[117.0,-21.2698],[116.55,-20.9913],[116.55,-20.4357],[117.0,-20.1587]]]},"properties":{"schools":11,"students":5191,"gov_share":82.0,"gov_students":4258,"catholic_students":933,"independent_students":0}},{"type":"Feature","geometry":{"type":"Polygon","coordinates":[[[118.8,-20.1587],[119.25,-20.4357],[119.25,-20.9913],[118.8,-21.2698],[118.35,-20.9913],[118.35,-20.4357],[118.8,-20.1587]]]},"properties":{"schools":8,"students":3144,"gov_share":95.0,"gov_students":2987,"catholic_students":157,"independent_students":0}},{"type":"Feature","geometry":{"type":"Polygon","coordinates":[[[139.5,-20.1587],[139.95,-20.4357],[139.95,-20.9913],[139.5,-21.2698],[139.05,-20.9913],[139.05,-20.4357],[139.5,-20.1587]]]},"properties":{"schools":13,"students":3623,"gov_share":74.1,"gov_students":2683,"catholic_students":940,"independent_students":0}},{"type":"Feature","geometry":{"type":"Polygon","coordinates":[[[147.6,-20.1587],[148.05,-20.4357],[148.05,-20.9913],[147.6,-21.2698],[147.15,-20.9913],[147.15,-20.4357],[147.6,-20.1587]]]},"properties":{"schools":4,"students":348,"gov_share":79.3,"gov_students":276,"catholic_students":72,"independent_students":0}},{"type":"Feature","geometry":{"type":"Polygon","coordinates":[[[148.5,-20.1587],[148.95,-20.4357],[148.95,-20.9913],[148.5,-21.2698],[148.05,-20.9913],[148.05,-20.4357],[148.5,-20.1587]]]},"properties":{"schools":9,"students":3138,"gov_share":63.5,"gov_students":1992,"catholic_students":725,"independent_students":421}},{"type":"Feature","geometry":{"type":"Polygon","coordinates":[[[149.4,-20.1587],[149.85,-20.4357],[149.85,-20.9913],[149.4,-21.2698],[148.95,-20.9913],[148.95,-20.4357],[149.4,-20.1587]]]},"properties":{"schools":21,"students":11349,"gov_share":56.1,"gov_students":6365,"catholic_students":2673,"independent_students":2311}},{"type":"Feature","geometry":{"type":"Polygon","coordinates":[[[146.25,-19.3306],[146.7,-19.6062],[146.7,-20.1587],[146.25,-20.4357],[145.8,-20.1587],[145.8,-19.6062],[146.25,-19.3306]]]},"properties":{"schools":8,"students":4369,"gov_share":71.7,"gov_students":3134,"catholic_students":425,"independent_students":810}},{"type":"Feature","geometry":{"type":"Polygon","coordinates":[[[147.15,-19.3306],[147.6,-19.6062],[147.6,-20.1587],[147.15,-20.4357],[146.7,-20.1587],[146.7,-19.6062],[147.15,-19.3306]]]},"properties":{"schools":21,"students":2611,"gov_share":61.2,"gov_students":1598,"catholic_students":633,"independent_students":380}},{"type":"Feature","geometry":{"type":"Polygon","coordinates":[[[148.05,-19.3306],[148.5,-19.6062],[148.5,-20.1587],[148.05,-20.4357],[147.6,-20.1587],[147.6,-19.6062],[148.05,-19.3306]]]},"properties":{"schools":6,"students":1680,"gov_share":91.3,"gov_students":1534,"catholic_students":146,"independent_students":0}},{"type":"Feature","geometry":{"type":"Polygon","coordinates":[[[148.95,-19.3306],[149.4,-19.6062],[149.4,-20.1587],[148.95,-20.4357],[148.5,-20.1587],[148.5,-19.6062],[148.95,-19.3306]]]},"properties":{"schools":3,"students":780,"gov_share":100.0,"gov_students":780,"catholic_students":0,"independent_students":0}},{"type":"Feature","geometry":{"type":"Polygon","coordinates":[[[146.7,-18.5067],[147.15,-18.7809],[147.15,-19.3306],[146.7,-19.6062],[146.25,-19.3306],[146.25,-18.7809],[146.7,-18.5067]]]},"properties":{"schools":65,"students":35129,"gov_share":52.4,"gov_students":18400,"catholic_students":11144,"independent_students":5585}},{"type":"Feature","geometry":{"type":"Polygon","coordinates":[[[121.95,-17.6867],[122.4,-17.9596],[122.4,-18.5067],[121.95,-18.7809],[121.5,-18.5067],[121.5,-17.9596],[121.95,-17.6867]]]},"properties":{"schools":7,"students":2948,"gov_share":74.4,"gov_students":2194,"catholic_students":754,"independent_students":0}},{"type":"Feature","geometry":{"type":"Polygon","coordinates":[[[125.55,-17.6867],[126.0,-17.9596],[126.0,-18.5067],[125.55,-18.7809],[125.1,-18.5067],[125.1,-17.9596],[125.55,-17.6867]]]},"properties":{"schools":3,"students":380,"gov_share":100.0,"gov_students":380,"catholic_students":0,"independent_students":0}},{"type":"Feature","geometry":{"type":"Polygon","coordinates":[[[146.25,-17.6867],[146.7,-17.9596],[146.7,-18.5067],[146.25,-18.7809],[145.8,-18.5067],[145.8,-17.9596],[146.25,-17.6867]]]},"properties":{"schools":24,"students":3303,"gov_share":71.7,"gov_students":2367,"catholic_students":909,"independent_students":27}},{"type":"Feature","geometry":{"type":"Polygon","coordinates":[[[123.3,-16.8704],[123.75,-17.1421],[123.75,-17.6867],[123.3,-17.9596],[122.85,-17.6867],[122.85,-17.1421],[123.3,-16.8704]]]},"properties":{"schools":3,"students":760,"gov_share":87.9,"gov_students":668,"catholic_students":92,"independent_students":0}},{"type":"Feature","geometry":{"type":"Polygon","coordinates":[[[144.9,-16.8704],[145.35,-17.1421],[145.35,-17.6867],[144.9,-17.9596],[144.45,-17.6867],[144.45,-17.1421],[144.9,-16.8704]]]},"properties":{"schools":6,"students":255,"gov_share":80.4,"gov_students":205,"catholic_students":50,"independent_students":0}},{"type":"Feature","geometry":{"type":"Polygon","coordinates":[[[145.8,-16.8704],[146.25,-17.1421],[146.25,-17.6867],[145.8,-17.9596],[145.35,-17.6867],[145.35,-17.1421],[145.8,-16.8704]]]},"properties":{"schools":69,"students":31631,"gov_share":61.8,"gov_students":19534,"catholic_students":7804,"independent_students":4293}},{"type":"Feature","geometry":{"type":"Polygon","coordinates":[[[122.85,-16.0576],[123.3,-16.3282],[123.3,-16.8704],[122.85,-17.1421],[122.4,-16.8704],[122.4,-16.3282],[122.85,-16.0576]]]},"properties":{"schools":3,"students":210,"gov_share":54.3,"gov_students":114,"catholic_students":96,"independent_students":0}},{"type":"Feature","geometry":{"type":"Polygon","coordinates":[[[145.35,-16.0576],[145.8,-16.3282],[145.8,-16.8704],[145.35,-17.1421],[144.9,-16.8704],[144.9,-16.3282],[145.35,-16.0576]]]},"properties":{"schools":31,"students":15370,"gov_share":67.3,"gov_students":10345,"catholic_students":3762,"independent_students":1263}},{"type":"Feature","geometry":{"type":"Polygon","coordinates":[[[128.7,-15.2482],[129.15,-15.5177],[129.15,-16.0576],[128.7,-16.3282],[128.25,-16.0576],[128.25,-15.5177],[128.7,-15.2482]]]},"properties":{"schools":3,"students":1151,"gov_share":87.7,"gov_students":1010,"catholic_students":115,"independent_students":26}},{"type":"Feature","geometry":{"type":"Polygon","coordinates":[[[144.9,-15.2482],[145.35,-15.5177],[145.35,-16.0576],[144.9,-16.3282],[144.45,-16.0576],[144.45,-15.5177],[144.9,-15.2482]]]},"properties":{"schools":6,"students":768,"gov_share":62.5,"gov_students":480,"catholic_students":122,"independent_students":166}},{"type":"Feature","geometry":{"type":"Polygon","coordinates":[[[132.3,-13.6384],[132.75,-13.9059],[132.75,-14.4419],[132.3,-14.7103],[131.85,-14.4419],[131.85,-13.9059],[132.3,-13.6384]]]},"properties":{"schools":8,"students":1737,"gov_share":82.8,"gov_students":1438,"catholic_students":299,"independent_students":0}},{"type":"Feature","geometry":{"type":"Polygon","coordinates":[[[130.95,-12.8377],[131.4,-13.1043],[131.4,-13.6384],[130.95,-13.9059],[130.5,-13.6384],[130.5,-13.1043],[130.95,-12.8377]]]},"properties":{"schools":5,"students":202,"gov_share":100.0,"gov_students":202,"catholic_students":0,"independent_students":0}},{"type":"Feature","geometry":{"type":"Polygon","coordinates":[[[136.35,-12.8377],[136.8,-13.1043],[136.8,-13.6384],[136.35,-13.9059],[135.9,-13.6384],[135.9,-13.1043],[136.35,-12.8377]]]},"properties":{"schools":3,"students":242,"gov_share":100.0,"gov_students":242,"catholic_students":0,"independent_students":0}},{"type":"Feature","geometry":{"type":"Polygon","coordinates":[[[130.5,-12.0396],[130.95,-12.3053],[130.95,-12.8377],[130.5,-13.1043],[130.05,-12.8377],[130.05,-12.3053],[130.5,-12.0396]]]},"properties":{"schools":43,"students":14352,"gov_share":70.6,"gov_students":10132,"catholic_students":1778,"independent_students":2442}},{"type":"Feature","geometry":{"type":"Polygon","coordinates":[[[131.4,-12.0396],[131.85,-12.3053],[131.85,-12.8377],[131.4,-13.1043],[130.95,-12.8377],[130.95,-12.3053],[131.4,-12.0396]]]},"properties":{"schools":24,"students":10278,"gov_share":69.1,"gov_students":7105,"catholic_students":1446,"independent_students":1727}},{"type":"Feature","geometry":{"type":"Polygon","coordinates":[[[133.2,-12.0396],[133.65,-12.3053],[133.65,-12.8377],[133.2,-13.1043],[132.75,-12.8377],[132.75,-12.3053],[133.2,-12.0396]]]},"properties":{"schools":3,"students":388,"gov_share":97.9,"gov_students":380,"catholic_students":0,"independent_students":8}},{"type":"Feature","geometry":{"type":"Polygon","coordinates":[[[136.8,-12.0396],[137.25,-12.3053],[137.25,-12.8377],[136.8,-13.1043],[136.35,-12.8377],[136.35,-12.3053],[136.8,-12.0396]]]},"properties":{"schools":6,"students":1076,"gov_share":81.8,"gov_students":880,"catholic_students":0,"independent_students":196}},{"type":"Feature","geometry":{"type":"Polygon","coordinates":[[[142.2,-12.0396],[142.65,-12.3053],[142.65,-12.8377],[142.2,-13.1043],[141.75,-12.8377],[141.75,-12.3053],[142.2,-12.0396]]]},"properties":{"schools":3,"students":1213,"gov_share":83.3,"gov_students":1010,"catholic_students":161,"independent_students":42}},{"type":"Feature","geometry":{"type":"Polygon","coordinates":[[[130.95,-11.2438],[131.4,-11.5088],[131.4,-12.0396],[130.95,-12.3053],[130.5,-12.0396],[130.5,-11.5088],[130.95,-11.2438]]]},"properties":{"schools":4,"students":380,"gov_share":11.6,"gov_students":44,"catholic_students":259,"independent_students":77}},{"type":"Feature","geometry":{"type":"Polygon","coordinates":[[[142.2,-10.4501],[142.65,-10.7145],[142.65,-11.2438],[142.2,-11.5088],[141.75,-11.2438],[141.75,-10.7145],[142.2,-10.4501]]]},"properties":{"schools":3,"students":1955,"gov_share":93.3,"gov_students":1824,"catholic_students":131,"independent_students":0}}]}